ONEWEB-0555             
1 56057U 23043M   25324.29161284  .00000212  00000+0  52160-3 0  9995
2 56057  87.9022 270.3684 0001393  67.8881 292.2397 13.16592579131475
ONEWEB-0557             
1 56058U 23043N   25324.22987671  .00000145  00000+0  34630-3 0  9992
2 56058  87.9019 270.3943 0000899 118.5532 241.5690 13.16593899131465
ONEWEB-0558             
1 56059U 23043P   25324.29471252  .00000047  00000+0  82559-4 0  9998
2 56059  87.9183 285.6524 0002372  75.8945 284.2452 13.21824264130641
ONEWEB-0559             
1 56060U 23043Q   25324.13181552  .00000037  00000+0  56963-4 0  9993
2 56060  87.9189 285.6780 0002196  84.9392 275.1993 13.21825669130632
ONEWEB-0566             
1 56061U 23043R   25324.12521985  .00000122  00000+0  26341-3 0  9992
2 56061  87.9189 285.6771 0002281  81.1385 279.0007 13.21828353130619
ONEWEB-0568             
1 56062U 23043S   25324.24728237  .00000050  00000+0  97816-4 0  9991
2 56062  87.9027 270.3770 0001642  73.2502 286.8809 13.16593064131488
ONEWEB-0574             
1 56063U 23043T   25324.27002221 -.00000058  00000+0 -17195-3 0  9994
2 56063  87.9185 285.6363 0001806  87.9484 272.1857 13.21822846130674
ONEWEB-0575             
1 56064U 23043U   25324.24095461  .00000134  00000+0  31649-3 0  9993
2 56064  87.9021 270.3793 0001468  85.5672 274.5627 13.16593427131473
ONEWEB-0576             
1 56065U 23043V   25324.22196264  .00000127  00000+0  29749-3 0  9995
2 56065  87.9022 270.3831 0001651  77.4874 282.6441 13.16594822131469
ONEWEB-0577             
1 56066U 23043W   25324.22827878  .00001463  00000+0  37922-2 0  9993
2 56066  87.8993 270.3808 0001298  89.4217 270.7063 13.16605075131495
ONEWEB-0578             
1 56067U 23043X   25324.25688468  .00000104  00000+0  22035-3 0  9998
2 56067  87.9191 285.6488 0001707  77.4193 282.7131 13.21825450130636
ONEWEB-0579             
1 56068U 23043Y   25324.17131662  .00000127  00000+0  27562-3 0  9994
2 56068  87.9189 285.6530 0002135  85.5628 274.5750 13.21827678130631
ONEWEB-0581             
1 56069U 23043Z   25324.23461881  .00000115  00000+0  26608-3 0  9998
2 56069  87.9021 270.3943 0001726  92.4622 267.6707 13.16592903131463
ONEWEB-0609             
1 56070U 23043AA  25324.17822276  .00000004  00000+0 -22659-4 0  9993
2 56070  87.8968 300.9245 0001929  83.0737 277.0613 13.15547527128959
ONEWEB-0613             
1 56071U 23043AB  25324.17347657  .00000073  00000+0  16083-3 0  9997
2 56071  87.8966 300.9382 0002164  85.6234 274.5144 13.15548128128951
ONEWEB-0630             
1 56072U 23043AC  25324.24477474  .00000122  00000+0  28871-3 0  9990
2 56072  87.8961 300.8956 0002127  86.3333 273.8041 13.15547595128955
