[{"OBJECT_NAME":"ONEWEB-0555","OBJECT_ID":"2023-043M","EPOCH":"2025-11-20T06:59:55.349376","MEAN_MOTION":13.16592579,"ECCENTRICITY":0.00013936,"INCLINATION":87.9022,"RA_OF_ASC_NODE":270.3684,"ARG_OF_PERICENTER":67.8881,"MEAN_ANOMALY":292.2397,"EPHEMERIS_TYPE":0,"CLASSIFICATION_TYPE":"U","NORAD_CAT_ID":56057,"ELEMENT_SET_NO":999,"REV_AT_EPOCH":13147,"BSTAR":0.00052160327,"MEAN_MOTION_DOT":2.12e-6,"MEAN_MOTION_DDOT":0},{"OBJECT_NAME":"ONEWEB-0557","OBJECT_ID":"2023-043N","EPOCH":"2025-11-20T05:31:01.347744","MEAN_MOTION":13.16593899,"ECCENTRICITY":8.998e-5,"INCLINATION":87.9019,"RA_OF_ASC_NODE":270.3943,"ARG_OF_PERICENTER":118.5532,"MEAN_ANOMALY":241.569,"EPHEMERIS_TYPE":0,"CLASSIFICATION_TYPE":"U","NORAD_CAT_ID":56058,"ELEMENT_SET_NO":999,"REV_AT_EPOCH":13146,"BSTAR":0.00034630438,"MEAN_MOTION_DOT":1.45e-6,"MEAN_MOTION_DDOT":0},{"OBJECT_NAME":"ONEWEB-0558","OBJECT_ID":"2023-043P","EPOCH":"2025-11-20T07:04:23.161728","MEAN_MOTION":13.21824264,"ECCENTRICITY":0.00023727,"INCLINATION":87.9183,"RA_OF_ASC_NODE":285.6524,"ARG_OF_PERICENTER":75.8945,"MEAN_ANOMALY":284.2452,"EPHEMERIS_TYPE":0,"CLASSIFICATION_TYPE":"U","NORAD_CAT_ID":56059,"ELEMENT_SET_NO":999,"REV_AT_EPOCH":13064,"BSTAR":8.2558595e-5,"MEAN_MOTION_DOT":4.7e-7,"MEAN_MOTION_DDOT":0},{"OBJECT_NAME":"ONEWEB-0559","OBJECT_ID":"2023-043Q","EPOCH":"2025-11-20T03:09:48.860928","MEAN_MOTION":13.21825669,"ECCENTRICITY":0.00021965,"INCLINATION":87.9189,"RA_OF_ASC_NODE":285.678,"ARG_OF_PERICENTER":84.9392,"MEAN_ANOMALY":275.1993,"EPHEMERIS_TYPE":0,"CLASSIFICATION_TYPE":"U","NORAD_CAT_ID":56060,"ELEMENT_SET_NO":999,"REV_AT_EPOCH":13063,"BSTAR":5.6963134e-5,"MEAN_MOTION_DOT":3.7e-7,"MEAN_MOTION_DDOT":0},{"OBJECT_NAME":"ONEWEB-0566","OBJECT_ID":"2023-043R","EPOCH":"2025-11-20T03:00:18.995040","MEAN_MOTION":13.21828353,"ECCENTRICITY":0.00022816,"INCLINATION":87.9189,"RA_OF_ASC_NODE":285.6771,"ARG_OF_PERICENTER":81.1385,"MEAN_ANOMALY":279.0007,"EPHEMERIS_TYPE":0,"CLASSIFICATION_TYPE":"U","NORAD_CAT_ID":56061,"ELEMENT_SET_NO":999,"REV_AT_EPOCH":13061,"BSTAR":0.00026340509,"MEAN_MOTION_DOT":1.22e-6,"MEAN_MOTION_DDOT":0},{"OBJECT_NAME":"ONEWEB-0568","OBJECT_ID":"2023-043S","EPOCH":"2025-11-20T05:56:05.196768","MEAN_MOTION":13.16593064,"ECCENTRICITY":0.00016423,"INCLINATION":87.9027,"RA_OF_ASC_NODE":270.377,"ARG_OF_PERICENTER":73.2502,"MEAN_ANOMALY":286.8809,"EPHEMERIS_TYPE":0,"CLASSIFICATION_TYPE":"U","NORAD_CAT_ID":56062,"ELEMENT_SET_NO":999,"REV_AT_EPOCH":13148,"BSTAR":9.7815572e-5,"MEAN_MOTION_DOT":5.0e-7,"MEAN_MOTION_DDOT":0},{"OBJECT_NAME":"ONEWEB-0574","OBJECT_ID":"2023-043T","EPOCH":"2025-11-20T06:28:49.918944","MEAN_MOTION":13.21822846,"ECCENTRICITY":0.00018065,"INCLINATION":87.9185,"RA_OF_ASC_NODE":285.6363,"ARG_OF_PERICENTER":87.9484,"MEAN_ANOMALY":272.1857,"EPHEMERIS_TYPE":0,"CLASSIFICATION_TYPE":"U","NORAD_CAT_ID":56063,"ELEMENT_SET_NO":999,"REV_AT_EPOCH":13067,"BSTAR":-0.00017194622,"MEAN_MOTION_DOT":-5.8e-7,"MEAN_MOTION_DDOT":0},{"OBJECT_NAME":"ONEWEB-0575","OBJECT_ID":"2023-043U","EPOCH":"2025-11-20T05:46:58.478304","MEAN_MOTION":13.16593427,"ECCENTRICITY":0.0001468,"INCLINATION":87.9021,"RA_OF_ASC_NODE":270.3793,"ARG_OF_PERICENTER":85.5672,"MEAN_ANOMALY":274.5627,"EPHEMERIS_TYPE":0,"CLASSIFICATION_TYPE":"U","NORAD_CAT_ID":56064,"ELEMENT_SET_NO":999,"REV_AT_EPOCH":13147,"BSTAR":0.00031648806,"MEAN_MOTION_DOT":1.34e-6,"MEAN_MOTION_DDOT":0},{"OBJECT_NAME":"ONEWEB-0576","OBJECT_ID":"2023-043V","EPOCH":"2025-11-20T05:19:37.572096","MEAN_MOTION":13.16594822,"ECCENTRICITY":0.0001651,"INCLINATION":87.9022,"RA_OF_ASC_NODE":270.3831,"ARG_OF_PERICENTER":77.4874,"MEAN_ANOMALY":282.6441,"EPHEMERIS_TYPE":0,"CLASSIFICATION_TYPE":"U","NORAD_CAT_ID":56065,"ELEMENT_SET_NO":999,"REV_AT_EPOCH":13146,"BSTAR":0.00029749227,"MEAN_MOTION_DOT":1.27e-6,"MEAN_MOTION_DDOT":0},{"OBJECT_NAME":"ONEWEB-0577","OBJECT_ID":"2023-043W","EPOCH":"2025-11-20T05:28:43.286592","MEAN_MOTION":13.16605075,"ECCENTRICITY":0.00012987,"INCLINATION":87.8993,"RA_OF_ASC_NODE":270.3808,"ARG_OF_PERICENTER":89.4217,"MEAN_ANOMALY":270.7063,"EPHEMERIS_TYPE":0,"CLASSIFICATION_TYPE":"U","NORAD_CAT_ID":56066,"ELEMENT_SET_NO":999,"REV_AT_EPOCH":13149,"BSTAR":0.0037922097,"MEAN_MOTION_DOT":1.463e-5,"MEAN_MOTION_DDOT":0},{"OBJECT_NAME":"ONEWEB-0578","OBJECT_ID":"2023-043X","EPOCH":"2025-11-20T06:09:54.836352","MEAN_MOTION":13.2182545,"ECCENTRICITY":0.00017072,"INCLINATION":87.9191,"RA_OF_ASC_NODE":285.6488,"ARG_OF_PERICENTER":77.4193,"MEAN_ANOMALY":282.7131,"EPHEMERIS_TYPE":0,"CLASSIFICATION_TYPE":"U","NORAD_CAT_ID":56067,"ELEMENT_SET_NO":999,"REV_AT_EPOCH":13063,"BSTAR":0.00022035122,"MEAN_MOTION_DOT":1.04e-6,"MEAN_MOTION_DDOT":0},{"OBJECT_NAME":"ONEWEB-0579","OBJECT_ID":"2023-043Y","EPOCH":"2025-11-20T04:06:41.755968","MEAN_MOTION":13.21827678,"ECCENTRICITY":0.00021356,"INCLINATION":87.9189,"RA_OF_ASC_NODE":285.653,"ARG_OF_PERICENTER":85.5628,"MEAN_ANOMALY":274.575,"EPHEMERIS_TYPE":0,"CLASSIFICATION_TYPE":"U","NORAD_CAT_ID":56068,"ELEMENT_SET_NO":999,"REV_AT_EPOCH":13063,"BSTAR":0.00027562078,"MEAN_MOTION_DOT":1.27e-6,"MEAN_MOTION_DDOT":0},{"OBJECT_NAME":"ONEWEB-0581","OBJECT_ID":"2023-043Z","EPOCH":"2025-11-20T05:37:51.065184","MEAN_MOTION":13.16592903,"ECCENTRICITY":0.00017261,"INCLINATION":87.9021,"RA_OF_ASC_NODE":270.3943,"ARG_OF_PERICENTER":92.4622,"MEAN_ANOMALY":267.6707,"EPHEMERIS_TYPE":0,"CLASSIFICATION_TYPE":"U","NORAD_CAT_ID":56069,"ELEMENT_SET_NO":999,"REV_AT_EPOCH":13146,"BSTAR":0.00026607616,"MEAN_MOTION_DOT":1.15e-6,"MEAN_MOTION_DDOT":0},{"OBJECT_NAME":"ONEWEB-0609","OBJECT_ID":"2023-043AA","EPOCH":"2025-11-20T04:16:38.446464","MEAN_MOTION":13.15547527,"ECCENTRICITY":0.00019299,"INCLINATION":87.8968,"RA_OF_ASC_NODE":300.9245,"ARG_OF_PERICENTER":83.0737,"MEAN_ANOMALY":277.0613,"EPHEMERIS_TYPE":0,"CLASSIFICATION_TYPE":"U","NORAD_CAT_ID":56070,"ELEMENT_SET_NO":999,"REV_AT_EPOCH":12895,"BSTAR":-2.2658569e-5,"MEAN_MOTION_DOT":4.0e-8,"MEAN_MOTION_DDOT":0},{"OBJECT_NAME":"ONEWEB-0613","OBJECT_ID":"2023-043AB","EPOCH":"2025-11-20T04:09:48.375648","MEAN_MOTION":13.15548128,"ECCENTRICITY":0.00021641,"INCLINATION":87.8966,"RA_OF_ASC_NODE":300.9382,"ARG_OF_PERICENTER":85.6234,"MEAN_ANOMALY":274.5144,"EPHEMERIS_TYPE":0,"CLASSIFICATION_TYPE":"U","NORAD_CAT_ID":56071,"ELEMENT_SET_NO":999,"REV_AT_EPOCH":12895,"BSTAR":0.00016083056,"MEAN_MOTION_DOT":7.3e-7,"MEAN_MOTION_DDOT":0},{"OBJECT_NAME":"ONEWEB-0630","OBJECT_ID":"2023-043AC","EPOCH":"2025-11-20T05:52:28.537536","MEAN_MOTION":13.15547595,"ECCENTRICITY":0.00021274,"INCLINATION":87.8961,"RA_OF_ASC_NODE":300.8956,"ARG_OF_PERICENTER":86.3333,"MEAN_ANOMALY":273.8041,"EPHEMERIS_TYPE":0,"CLASSIFICATION_TYPE":"U","NORAD_CAT_ID":56072,"ELEMENT_SET_NO":999,"REV_AT_EPOCH":12895,"BSTAR":0.00028871266,"MEAN_MOTION_DOT":1.22e-6,"MEAN_MOTION_DDOT":0}]
